ONEWEB-0199             
1 48234U 21031AA  24181.92744712  .00000155  00000+0  38473-3 0  9998
2 48234  87.8960  72.3919 0002081  78.9068 281.2296 13.14501774154037
ONEWEB-0203             
1 48235U 21031AB  24182.14628401  .00000281  00000+0  72360-3 0  9993
2 48235  87.8958  72.3496 0002303  71.5012 288.6368 13.14505825154076
ONEWEB-0197             
1 48236U 21031AC  24181.74110492 -.00000061  00000+0 -19892-3 0  9994
2 48236  87.8959  72.4389 0001872  90.1985 269.9359 13.14505559153936
ONEWEB-0194             
1 48237U 21031AD  24181.94805778 -.00000149  00000+0 -43606-3 0  9992
2 48237  87.8963  72.3908 0002162  77.0332 283.1039 13.14501205154131
ONEWEB-0193             
1 48238U 21031AE  24182.19226106 -.00000347  00000+0 -97156-3 0  9992
2 48238  87.8960  72.3501 0001929  74.5142 285.6201 13.14502807154114
ONEWEB-0191             
1 48239U 21031AF  24182.20335969 -.00000103  00000+0 -31314-3 0  9997
2 48239  87.8954  72.3311 0001888  75.8475 284.2865 13.14504491153979
ONEWEB-0195             
1 48240U 21031AG  24181.95201815 -.00000139  00000+0 -40874-3 0  9992
2 48240  87.8958  72.3805 0001636  66.7496 293.3806 13.14501498153921
ONEWEB-0201             
1 48241U 21031AH  24182.16926965  .00000047  00000+0  92214-4 0  9999
2 48241  87.8961  72.3723 0001770  75.4502 284.6824 13.14504889154188
